NORAD_CAT_ID,OBJECT_NAME,OBJECT_TYPE,EPOCH,MEAN_MOTION,ECCENTRICITY,INCLINATION,RA_OF_ASC_NODE,ARG_OF_PERICENTER,MEAN_ANOMALY,BSTAR,MEAN_MOTION_DOT,MEAN_MOTION_DDOT,TLE_LINE0,TLE_LINE1,TLE_LINE2,SEMIMAJOR_AXIS,PERIOD,APOGEE,PERIGEE,DECAYED
52603.0,STARLINK-4016,PAYLOAD,2024-07-06 14:02:01,15.08841912,0.0001535,53.2183,142.4902,91.1845,268.9323,5.1084e-05,5.25e-06,0.0,0 STARLINK-4016,1 52603U 22052F   24188.58474222  .00000525  00000-0  51084-4 0  9998,2 52603  53.2183 142.4902 0001535  91.1845 268.9323 15.08841912119401,6917.875,95.437,540.801,538.678,0.0
52603.0,STARLINK-4016,PAYLOAD,2024-07-06 20:23:34,15.08842793,0.0001611,53.2162,141.3034,93.0833,267.0344,-2.3886e-05,-6.68e-06,0.0,0 STARLINK-4016,1 52603U 22052F   24188.84970516 -.00000668  00000-0 -23886-4 0  9993,2 52603  53.2162 141.3034 0001611  93.0833 267.0344 15.08842793119013,6917.872,95.437,540.851,538.622,0.0
52603.0,STARLINK-4016,PAYLOAD,2024-07-07 04:20:30,15.08832292,0.0001354,53.2171,139.8137,81.1818,278.9328,6.2564e-05,7.08e-06,0.0,0 STARLINK-4016,1 52603U 22052F   24189.18091098  .00000708  00000-0  62564-4 0  9999,2 52603  53.2171 139.8137 0001354  81.1818 278.9328 15.08832292119065,6917.904,95.438,540.706,538.832,0.0
52603.0,STARLINK-4016,PAYLOAD,2024-07-07 05:55:53,15.08835988,0.0001536,53.2175,139.5156,82.903,277.2137,6.028e-05,6.71e-06,0.0,0 STARLINK-4016,1 52603U 22052F   24189.24714882  .00000671  00000-0  60280-4 0  9991,2 52603  53.2175 139.5156 0001536  82.9030 277.2137 15.08835988119508,6917.893,95.438,540.82,538.695,0.0
52603.0,STARLINK-4016,PAYLOAD,2024-07-07 20:14:21,15.0883831,0.0001536,53.2177,136.8392,92.1356,267.9812,0.00014598,2.036e-05,0.0,0 STARLINK-4016,1 52603U 22052F   24189.84330508  .00002036  00000-0  14598-3 0  9993,2 52603  53.2177 136.8392 0001536  92.1356 267.9812 15.08838310119166,6917.886,95.438,540.813,538.688,0.0
52603.0,STARLINK-4016,PAYLOAD,2024-07-08 13:43:35,15.08847795,0.0001375,53.2168,133.5676,91.5606,268.5543,0.00013377,1.842e-05,0.0,0 STARLINK-4016,1 52603U 22052F   24190.57193878  .00001842  00000-0  13377-3 0  9990,2 52603  53.2168 133.5676 0001375  91.5606 268.5543 15.08847795119702,6917.857,95.437,540.673,538.77,0.0
52603.0,STARLINK-4016,PAYLOAD,2024-07-09 02:26:41,15.08831704,0.0001173,53.2167,131.1885,97.5427,262.5698,5.2936e-05,5.55e-06,0.0,0 STARLINK-4016,1 52603U 22052F   24191.10187201  .00000555  00000-0  52936-4 0  9998,2 52603  53.2167 131.1885 0001173  97.5427 262.5698 15.08831704119359,6917.906,95.438,540.582,538.959,0.0
52603.0,STARLINK-4016,PAYLOAD,2024-07-09 05:37:27,15.08842058,0.0001428,53.2163,130.5916,103.2521,256.8631,5.8036e-05,6.36e-06,0.0,0 STARLINK-4016,1 52603U 22052F   24191.23434511  .00000636  00000-0  58036-4 0  9998,2 52603  53.2163 130.5916 0001428 103.2521 256.8631 15.08842058119375,6917.874,95.437,540.727,538.751,0.0
52603.0,STARLINK-4016,PAYLOAD,2024-07-09 13:34:22,15.08843342,0.0001425,53.2164,129.1045,104.4681,255.6469,6.7497e-05,7.87e-06,0.0,0 STARLINK-4016,1 52603U 22052F   24191.56554379  .00000787  00000-0  67497-4 0  9997,2 52603  53.2164 129.1045 0001425 104.4681 255.6469 15.08843342119856,6917.87,95.437,540.721,538.749,0.0
52603.0,STARLINK-4016,PAYLOAD,2024-07-10 02:17:28,15.08832892,0.0001521,53.2175,126.7282,101.81,258.3062,-3.0775e-05,-7.78e-06,0.0,0 STARLINK-4016,1 52603U 22052F   24192.09547396 -.00000778  00000-0 -30775-4 0  9998,2 52603  53.2175 126.7282 0001521 101.8100 258.3062 15.08832892119507,6917.902,95.438,540.819,538.715,0.0
52603.0,STARLINK-4016,PAYLOAD,2024-07-10 19:46:42,15.08835057,0.0001287,53.2174,123.4575,101.4222,258.6915,0.00011583,1.556e-05,0.0,0 STARLINK-4016,1 52603U 22052F   24192.82410825  .00001556  00000-0  11583-3 0  9993,2 52603  53.2174 123.4575 0001287 101.4222 258.6915 15.08835057119613,6917.895,95.438,540.651,538.87,0.0
52603.0,STARLINK-4016,PAYLOAD,2024-07-10 22:57:29,15.08835647,0.0001454,53.2177,122.862,101.3731,258.7424,9.3273e-05,1.197e-05,0.0,0 STARLINK-4016,1 52603U 22052F   24192.95658922  .00001197  00000-0  93273-4 0  9997,2 52603  53.2177 122.8620 0001454 101.3731 258.7424 15.08835647120062,6917.894,95.438,540.765,538.753,0.0
52603.0,STARLINK-4016,PAYLOAD,2024-07-11 02:08:15,15.0884019,0.0001439,53.2176,122.2684,100.4581,259.6574,2.4723e-05,1.06e-06,0.0,0 STARLINK-4016,1 52603U 22052F   24193.08906905  .00000106  00000-0  24723-4 0  9992,2 52603  53.2176 122.2684 0001439 100.4581 259.6574 15.08840190120088,6917.88,95.438,540.74,538.749,0.0
52603.0,STARLINK-4016,PAYLOAD,2024-07-12 01:59:02,15.08835615,0.0001354,53.2166,117.8067,98.394,261.7206,0.00013023,1.785e-05,0.0,0 STARLINK-4016,1 52603U 22052F   24194.08267108  .00001785  00000-0  13023-3 0  9992,2 52603  53.2166 117.8067 0001354  98.3940 261.7206 15.08835615119802,6917.894,95.438,540.695,538.822,0.0
52603.0,STARLINK-4016,PAYLOAD,2024-07-12 11:31:21,15.08846712,0.0001356,53.2173,116.0244,103.4085,256.7059,0.0001363,1.882e-05,0.0,0 STARLINK-4016,1 52603U 22052F   24194.48010417  .00001882  00000-0  13630-3 0  9997,2 52603  53.2173 116.0244 0001356 103.4085 256.7059 15.08846712119864,6917.86,95.437,540.663,538.787,0.0
52603.0,STARLINK-4016,PAYLOAD,2024-07-12 19:28:17,15.088384,0.0002011,53.2181,114.5381,107.5025,252.6187,6.8678e-05,8.05e-06,0.0,0 STARLINK-4016,1 52603U 22052F   24194.81131298  .00000805  00000-0  68678-4 0  9992,2 52603  53.2181 114.5381 0002011 107.5025 252.6187 15.08838400119914,6917.885,95.438,541.141,538.359,0.0
52603.0,STARLINK-4016,PAYLOAD,2024-07-12 22:39:04,15.08832549,0.0001476,53.2174,113.9434,104.2065,255.9091,1.8247e-05,2e-08,0.0,0 STARLINK-4016,1 52603U 22052F   24194.94379798  .00000002  00000-0  18247-4 0  9991,2 52603  53.2174 113.9434 0001476 104.2065 255.9091 15.08832549120369,6917.903,95.438,540.789,538.747,0.0
52603.0,STARLINK-4016,PAYLOAD,2024-07-13 11:22:08,15.08850454,0.0001385,53.2176,111.5643,101.9046,258.2101,0.00016182,2.289e-05,0.0,0 STARLINK-4016,1 52603U 22052F   24195.47370396  .00002289  00000-0  16182-3 0  9999,2 52603  53.2176 111.5643 0001385 101.9046 258.2101 15.08850454120014,6917.848,95.437,540.672,538.755,0.0
52603.0,STARLINK-4016,PAYLOAD,2024-07-13 22:29:51,15.0883454,0.0001352,53.2172,109.4827,102.3949,257.7194,4.1423e-05,3.71e-06,0.0,0 STARLINK-4016,1 52603U 22052F   24195.93739846  .00000371  00000-0  41423-4 0  9996,2 52603  53.2172 109.4827 0001352 102.3949 257.7194 15.08834540120510,6917.897,95.438,540.697,538.827,0.0
52603.0,STARLINK-4016,PAYLOAD,2024-07-14 01:40:36,15.08839623,0.000144,53.2164,108.8877,92.6054,267.5103,6.2246e-05,7.03e-06,0.0,0 STARLINK-4016,1 52603U 22052F   24196.06987231  .00000703  00000-0  62246-4 0  9999,2 52603  53.2164 108.8877 0001440  92.6054 267.5103 15.08839623120106,6917.882,95.438,540.743,538.75,0.0
52603.0,STARLINK-4016,PAYLOAD,2024-07-14 11:12:54,15.08854457,0.000118,53.2158,107.1,73.885,286.2272,0.0002112,3.076e-05,0.0,0 STARLINK-4016,1 52603U 22052F   24196.46730270  .00003076  00000-0  21120-3 0  9993,2 52603  53.2158 107.1000 0001180  73.8850 286.2272 15.08854457120168,6917.836,95.437,540.518,538.885,0.0
52603.0,STARLINK-4016,PAYLOAD,2024-07-14 17:34:28,15.08838798,0.0001808,53.2167,105.9155,82.5922,277.5275,0.00016928,2.407e-05,0.0,0 STARLINK-4016,1 52603U 22052F   24196.73227318  .00002407  00000-0  16928-3 0  9994,2 52603  53.2167 105.9155 0001808  82.5922 277.5275 15.08838798120200,6917.884,95.438,541.0,538.498,0.0
52603.0,STARLINK-4016,PAYLOAD,2024-07-14 22:20:38,15.08834372,0.0001482,53.2172,105.0227,81.1692,278.9468,9.9252e-05,1.292e-05,0.0,0 STARLINK-4016,1 52603U 22052F   24196.93099580  .00001292  00000-0  99252-4 0  9997,2 52603  53.2172 105.0227 0001482  81.1692 278.9468 15.08834372120667,6917.898,95.438,540.788,538.737,0.0
52603.0,STARLINK-4016,PAYLOAD,2024-07-15 11:03:42,15.0885561,0.000133,53.2158,102.643,82.3986,277.7157,0.00037125,5.628e-05,0.0,0 STARLINK-4016,1 52603U 22052F   24197.46090478  .00005628  00000-0  37125-3 0  9990,2 52603  53.2158 102.6430 0001330  82.3986 277.7157 15.08855610120313,6917.833,95.437,540.618,538.778,0.0
52603.0,STARLINK-4016,PAYLOAD,2024-07-15 17:25:15,15.08835034,0.000157,53.2174,101.448,87.4726,272.6445,1.9058e-05,1.5e-07,0.0,0 STARLINK-4016,1 52603U 22052F   24197.72587426  .00000015  00000-0  19058-4 0  9994,2 52603  53.2174 101.4480 0001570  87.4726 272.6445 15.08835034120353,6917.896,95.438,540.847,538.674,0.0
52603.0,STARLINK-4016,PAYLOAD,2024-07-15 22:11:24,15.08837031,0.0001536,53.2167,100.5546,98.3853,261.7313,0.00030899,4.633e-05,0.0,0 STARLINK-4016,1 52603U 22052F   24197.92459286  .00004633  00000-0  30899-3 0  9993,2 52603  53.2167 100.5546 0001536  98.3853 261.7313 15.08837031120815,6917.889,95.438,540.817,538.692,0.0
52603.0,STARLINK-4016,PAYLOAD,2024-07-16 01:22:11,15.08838907,0.0001329,53.215,99.9644,94.8571,265.2573,0.0018388,0.00029097,0.0,0 STARLINK-4016,1 52603U 22052F   24198.05707473  .00029097  00000-0  18388-2 0  9991,2 52603  53.2150  99.9644 0001329  94.8571 265.2573 15.08838907120400,6917.884,95.438,540.668,538.829,0.0
52603.0,STARLINK-4016,PAYLOAD,2024-07-16 22:02:12,15.08867858,0.0001868,53.2158,96.1004,67.6325,292.4865,0.0017343,0.00027443,0.0,0 STARLINK-4016,1 52603U 22052F   24198.91819462  .00027443  00000-0  17343-2 0  9991,2 52603  53.2158  96.1004 0001868  67.6325 292.4865 15.08867858120964,6917.795,95.436,540.952,538.368,0.0
52603.0,STARLINK-4016,PAYLOAD,2024-07-17 02:48:20,15.0885547,0.0001421,53.2152,95.2041,100.6488,259.4664,0.00079183,0.00012342,0.0,0 STARLINK-4016,1 52603U 22052F   24199.11690872  .00012342  00000-0  79183-3 0  9999,2 52603  53.2152  95.2041 0001421 100.6488 259.4664 15.08855470120565,6917.833,95.437,540.681,538.715,0.0
52603.0,STARLINK-4016,PAYLOAD,2024-07-17 10:45:16,15.0886402,0.0001449,53.216,93.7169,101.829,258.2865,0.00095488,0.00014952,0.0,0 STARLINK-4016,1 52603U 22052F   24199.44810448  .00014952  00000-0  95488-3 0  9993,2 52603  53.2160  93.7169 0001449 101.8290 258.2865 15.08864020121047,6917.807,95.436,540.674,538.67,0.0
